[{"OBJECT_NAME":"STARLINK-33636","OBJECT_ID":"2025-063S","EPOCH":"2026-03-09T23:00:38.795904","MEAN_MOTION":15.30223783,"ECCENTRICITY":0.00015204,"INCLINATION":53.1599,"RA_OF_ASC_NODE":50.9979,"ARG_OF_PERICENTER":102.6105,"MEAN_ANOMALY":257.5066,"EPHEMERIS_TYPE":0,"CLASSIFICATION_TYPE":"U","NORAD_CAT_ID":63379,"ELEMENT_SET_NO":999,"REV_AT_EPOCH":5475,"BSTAR":0.0014159629,"MEAN_MOTION_DOT":0.00041845,"MEAN_MOTION_DDOT":0},{"OBJECT_NAME":"CZ-6A DEB","OBJECT_ID":"2024-140PU","EPOCH":"2026-03-09T02:24:11.901600","MEAN_MOTION":14.96529453,"ECCENTRICITY":0.01989751,"INCLINATION":89.1479,"RA_OF_ASC_NODE":289.7131,"ARG_OF_PERICENTER":96.8489,"MEAN_ANOMALY":265.5425,"EPHEMERIS_TYPE":0,"CLASSIFICATION_TYPE":"U","NORAD_CAT_ID":61126,"ELEMENT_SET_NO":999,"REV_AT_EPOCH":8404,"BSTAR":0.00070354239,"MEAN_MOTION_DOT":0.00012037,"MEAN_MOTION_DDOT":0}]
